TIGRISAT                
1 40043U 14033AK  17346.50413380  .00000173  00000-0  33006-4 0  9994
2 40043  97.8326 225.3309 0061523  80.4429 280.3725 14.74069351187100
